<?xml version="1.0" encoding="UTF-8"?>
<ndm xmlns:xsi="http://www.w3.org/2001/XMLSchema-instance" xsi:noNamespaceSchemaLocation="https://sanaregistry.org/r/ndmxml_unqualified/ndmxml-2.0.0-master-2.0.xsd">
<omm id="CCSDS_OMM_VERS" version="2.0">
<header><CREATION_DATE/><ORIGINATOR/></header><body><segment><metadata><OBJECT_NAME>ORBCOMM FM33</OBJECT_NAME><OBJECT_ID>1999-065D</OBJECT_ID><CENTER_NAME>EARTH</CENTER_NAME><REF_FRAME>TEME</REF_FRAME><TIME_SYSTEM>UTC</TIME_SYSTEM><MEAN_ELEMENT_THEORY>SGP4</MEAN_ELEMENT_THEORY></metadata><data><meanElements><EPOCH>2025-08-10T14:55:05.018304</EPOCH><MEAN_MOTION>14.40089108</MEAN_MOTION><ECCENTRICITY>.0009087</ECCENTRICITY><INCLINATION>45.0285</INCLINATION><RA_OF_ASC_NODE>100.1403</RA_OF_ASC_NODE><ARG_OF_PERICENTER>340.6295</ARG_OF_PERICENTER><MEAN_ANOMALY>19.4208</MEAN_ANOMALY></meanElements><tleParameters><EPHEMERIS_TYPE>0</EPHEMERIS_TYPE><CLASSIFICATION_TYPE>U</CLASSIFICATION_TYPE><NORAD_CAT_ID>25983</NORAD_CAT_ID><ELEMENT_SET_NO>999</ELEMENT_SET_NO><REV_AT_EPOCH>34391</REV_AT_EPOCH><BSTAR>.28762E-3</BSTAR><MEAN_MOTION_DOT>.773E-5</MEAN_MOTION_DOT><MEAN_MOTION_DDOT>0</MEAN_MOTION_DDOT></tleParameters></data></segment></body></omm>
<omm id="CCSDS_OMM_VERS" version="2.0">
<header><CREATION_DATE/><ORIGINATOR/></header><body><segment><metadata><OBJECT_NAME>ORBCOMM FM36</OBJECT_NAME><OBJECT_ID>1999-065E</OBJECT_ID><CENTER_NAME>EARTH</CENTER_NAME><REF_FRAME>TEME</REF_FRAME><TIME_SYSTEM>UTC</TIME_SYSTEM><MEAN_ELEMENT_THEORY>SGP4</MEAN_ELEMENT_THEORY></metadata><data><meanElements><EPOCH>2025-08-10T05:46:40.129536</EPOCH><MEAN_MOTION>14.38223468</MEAN_MOTION><ECCENTRICITY>.0003947</ECCENTRICITY><INCLINATION>45.0379</INCLINATION><RA_OF_ASC_NODE>194.7152</RA_OF_ASC_NODE><ARG_OF_PERICENTER>252.8893</ARG_OF_PERICENTER><MEAN_ANOMALY>107.1524</MEAN_ANOMALY></meanElements><tleParameters><EPHEMERIS_TYPE>0</EPHEMERIS_TYPE><CLASSIFICATION_TYPE>U</CLASSIFICATION_TYPE><NORAD_CAT_ID>25984</NORAD_CAT_ID><ELEMENT_SET_NO>999</ELEMENT_SET_NO><REV_AT_EPOCH>34279</REV_AT_EPOCH><BSTAR>.42384E-3</BSTAR><MEAN_MOTION_DOT>.1157E-4</MEAN_MOTION_DOT><MEAN_MOTION_DDOT>0</MEAN_MOTION_DDOT></tleParameters></data></segment></body></omm>
<omm id="CCSDS_OMM_VERS" version="2.0">
<header><CREATION_DATE/><ORIGINATOR/></header><body><segment><metadata><OBJECT_NAME>ORBCOMM FM35</OBJECT_NAME><OBJECT_ID>1999-065F</OBJECT_ID><CENTER_NAME>EARTH</CENTER_NAME><REF_FRAME>TEME</REF_FRAME><TIME_SYSTEM>UTC</TIME_SYSTEM><MEAN_ELEMENT_THEORY>SGP4</MEAN_ELEMENT_THEORY></metadata><data><meanElements><EPOCH>2025-08-10T06:13:26.343552</EPOCH><MEAN_MOTION>14.37185054</MEAN_MOTION><ECCENTRICITY>.0006054</ECCENTRICITY><INCLINATION>45.0382</INCLINATION><RA_OF_ASC_NODE>200.0914</RA_OF_ASC_NODE><ARG_OF_PERICENTER>303.5108</ARG_OF_PERICENTER><MEAN_ANOMALY>56.5161</MEAN_ANOMALY></meanElements><tleParameters><EPHEMERIS_TYPE>0</EPHEMERIS_TYPE><CLASSIFICATION_TYPE>U</CLASSIFICATION_TYPE><NORAD_CAT_ID>25985</NORAD_CAT_ID><ELEMENT_SET_NO>999</ELEMENT_SET_NO><REV_AT_EPOCH>34256</REV_AT_EPOCH><BSTAR>.35663E-3</BSTAR><MEAN_MOTION_DOT>.929E-5</MEAN_MOTION_DOT><MEAN_MOTION_DDOT>0</MEAN_MOTION_DDOT></tleParameters></data></segment></body></omm>
<omm id="CCSDS_OMM_VERS" version="2.0">
<header><CREATION_DATE/><ORIGINATOR/></header><body><segment><metadata><OBJECT_NAME>ORBCOMM FM34</OBJECT_NAME><OBJECT_ID>1999-065G</OBJECT_ID><CENTER_NAME>EARTH</CENTER_NAME><REF_FRAME>TEME</REF_FRAME><TIME_SYSTEM>UTC</TIME_SYSTEM><MEAN_ELEMENT_THEORY>SGP4</MEAN_ELEMENT_THEORY></metadata><data><meanElements><EPOCH>2025-08-10T08:43:39.696960</EPOCH><MEAN_MOTION>14.37197718</MEAN_MOTION><ECCENTRICITY>.0005837</ECCENTRICITY><INCLINATION>45.0376</INCLINATION><RA_OF_ASC_NODE>200.0564</RA_OF_ASC_NODE><ARG_OF_PERICENTER>271.6966</ARG_OF_PERICENTER><MEAN_ANOMALY>88.3214</MEAN_ANOMALY></meanElements><tleParameters><EPHEMERIS_TYPE>0</EPHEMERIS_TYPE><CLASSIFICATION_TYPE>U</CLASSIFICATION_TYPE><NORAD_CAT_ID>25986</NORAD_CAT_ID><ELEMENT_SET_NO>999</ELEMENT_SET_NO><REV_AT_EPOCH>34269</REV_AT_EPOCH><BSTAR>.32251E-3</BSTAR><MEAN_MOTION_DOT>.827E-5</MEAN_MOTION_DOT><MEAN_MOTION_DDOT>0</MEAN_MOTION_DDOT></tleParameters></data></segment></body></omm>
<omm id="CCSDS_OMM_VERS" version="2.0">
<header><CREATION_DATE/><ORIGINATOR/></header><body><segment><metadata><OBJECT_NAME>ORBCOMM FM38</OBJECT_NAME><OBJECT_ID>2008-031A</OBJECT_ID><CENTER_NAME>EARTH</CENTER_NAME><REF_FRAME>TEME</REF_FRAME><TIME_SYSTEM>UTC</TIME_SYSTEM><MEAN_ELEMENT_THEORY>SGP4</MEAN_ELEMENT_THEORY></metadata><data><meanElements><EPOCH>2025-08-10T05:44:17.630880</EPOCH><MEAN_MOTION>14.81490853</MEAN_MOTION><ECCENTRICITY>.0005268</ECCENTRICITY><INCLINATION>48.4411</INCLINATION><RA_OF_ASC_NODE>57.6238</RA_OF_ASC_NODE><ARG_OF_PERICENTER>270.7678</ARG_OF_PERICENTER><MEAN_ANOMALY>89.2634</MEAN_ANOMALY></meanElements><tleParameters><EPHEMERIS_TYPE>0</EPHEMERIS_TYPE><CLASSIFICATION_TYPE>U</CLASSIFICATION_TYPE><NORAD_CAT_ID>33060</NORAD_CAT_ID><ELEMENT_SET_NO>999</ELEMENT_SET_NO><REV_AT_EPOCH>92276</REV_AT_EPOCH><BSTAR>.23613E-3</BSTAR><MEAN_MOTION_DOT>.1656E-4</MEAN_MOTION_DOT><MEAN_MOTION_DDOT>0</MEAN_MOTION_DDOT></tleParameters></data></segment></body></omm>
<omm id="CCSDS_OMM_VERS" version="2.0">
<header><CREATION_DATE/><ORIGINATOR/></header><body><segment><metadata><OBJECT_NAME>ORBCOMM FM41</OBJECT_NAME><OBJECT_ID>2008-031B</OBJECT_ID><CENTER_NAME>EARTH</CENTER_NAME><REF_FRAME>TEME</REF_FRAME><TIME_SYSTEM>UTC</TIME_SYSTEM><MEAN_ELEMENT_THEORY>SGP4</MEAN_ELEMENT_THEORY></metadata><data><meanElements><EPOCH>2025-08-10T06:56:57.240096</EPOCH><MEAN_MOTION>14.81069472</MEAN_MOTION><ECCENTRICITY>.0004506</ECCENTRICITY><INCLINATION>48.4445</INCLINATION><RA_OF_ASC_NODE>65.3494</RA_OF_ASC_NODE><ARG_OF_PERICENTER>256.2543</ARG_OF_PERICENTER><MEAN_ANOMALY>274.2435</MEAN_ANOMALY></meanElements><tleParameters><EPHEMERIS_TYPE>0</EPHEMERIS_TYPE><CLASSIFICATION_TYPE>U</CLASSIFICATION_TYPE><NORAD_CAT_ID>33061</NORAD_CAT_ID><ELEMENT_SET_NO>999</ELEMENT_SET_NO><REV_AT_EPOCH>92225</REV_AT_EPOCH><BSTAR>.21434E-3</BSTAR><MEAN_MOTION_DOT>.1467E-4</MEAN_MOTION_DOT><MEAN_MOTION_DDOT>0</MEAN_MOTION_DDOT></tleParameters></data></segment></body></omm>
<omm id="CCSDS_OMM_VERS" version="2.0">
<header><CREATION_DATE/><ORIGINATOR/></header><body><segment><metadata><OBJECT_NAME>ORBCOMM FM29</OBJECT_NAME><OBJECT_ID>2008-031C</OBJECT_ID><CENTER_NAME>EARTH</CENTER_NAME><REF_FRAME>TEME</REF_FRAME><TIME_SYSTEM>UTC</TIME_SYSTEM><MEAN_ELEMENT_THEORY>SGP4</MEAN_ELEMENT_THEORY></metadata><data><meanElements><EPOCH>2025-08-10T14:01:04.335744</EPOCH><MEAN_MOTION>14.81178531</MEAN_MOTION><ECCENTRICITY>.0006157</ECCENTRICITY><INCLINATION>48.4396</INCLINATION><RA_OF_ASC_NODE>71.6889</RA_OF_ASC_NODE><ARG_OF_PERICENTER>257.2865</ARG_OF_PERICENTER><MEAN_ANOMALY>149.3201</MEAN_ANOMALY></meanElements><tleParameters><EPHEMERIS_TYPE>0</EPHEMERIS_TYPE><CLASSIFICATION_TYPE>U</CLASSIFICATION_TYPE><NORAD_CAT_ID>33062</NORAD_CAT_ID><ELEMENT_SET_NO>999</ELEMENT_SET_NO><REV_AT_EPOCH>92221</REV_AT_EPOCH><BSTAR>.24165E-3</BSTAR><MEAN_MOTION_DOT>.1686E-4</MEAN_MOTION_DOT><MEAN_MOTION_DDOT>0</MEAN_MOTION_DDOT></tleParameters></data></segment></body></omm>
<omm id="CCSDS_OMM_VERS" version="2.0">
<header><CREATION_DATE/><ORIGINATOR/></header><body><segment><metadata><OBJECT_NAME>ORBCOMM FM39</OBJECT_NAME><OBJECT_ID>2008-031D</OBJECT_ID><CENTER_NAME>EARTH</CENTER_NAME><REF_FRAME>TEME</REF_FRAME><TIME_SYSTEM>UTC</TIME_SYSTEM><MEAN_ELEMENT_THEORY>SGP4</MEAN_ELEMENT_THEORY></metadata><data><meanElements><EPOCH>2025-08-10T09:21:02.648736</EPOCH><MEAN_MOTION>14.79711345</MEAN_MOTION><ECCENTRICITY>.0006969</ECCENTRICITY><INCLINATION>48.4407</INCLINATION><RA_OF_ASC_NODE>97.4863</RA_OF_ASC_NODE><ARG_OF_PERICENTER>230.0463</ARG_OF_PERICENTER><MEAN_ANOMALY>129.9840</MEAN_ANOMALY></meanElements><tleParameters><EPHEMERIS_TYPE>0</EPHEMERIS_TYPE><CLASSIFICATION_TYPE>U</CLASSIFICATION_TYPE><NORAD_CAT_ID>33063</NORAD_CAT_ID><ELEMENT_SET_NO>999</ELEMENT_SET_NO><REV_AT_EPOCH>92182</REV_AT_EPOCH><BSTAR>.21399E-3</BSTAR><MEAN_MOTION_DOT>.1413E-4</MEAN_MOTION_DOT><MEAN_MOTION_DDOT>0</MEAN_MOTION_DDOT></tleParameters></data></segment></body></omm>

</ndm>
