33060,ORBCOMM FM38,2008,97.2,-1.0,-,48.44,Inactive,0,LEO,Russia,ORBCOMM,Unknown,Unknown,Unknown,1 33060U 08031A   25222.23909295  .00001656  00000+0  23613-3 0  9991,2 33060  48.4411  57.6238 0005268 270.7678  89.2634 14.81490853922766,14.81490853,0.0005268,LEO
33061,ORBCOMM FM41,2008,97.23,-1.0,-,48.44,Inactive,0,LEO,Russia,ORBCOMM,Unknown,Unknown,Unknown,1 33061U 08031B   25222.28955139  .00001467  00000+0  21434-3 0  9994,2 33061  48.4445  65.3494 0004506 256.2543 274.2435 14.81069472922256,14.81069472,0.0004506,LEO
33062,ORBCOMM FM29,2008,97.22,-1.0,-,48.44,Inactive,0,LEO,Russia,ORBCOMM,Unknown,Unknown,Unknown,1 33062U 08031C   25222.58407796  .00001686  00000+0  24165-3 0  9996,2 33062  48.4396  71.6889 0006157 257.2865 149.3201 14.81178531922218,14.81178531,0.0006157,LEO
33063,ORBCOMM FM39,2008,97.32,-1.0,-,48.44,Inactive,0,LEO,Russia,ORBCOMM,Unknown,Unknown,Unknown,1 33063U 08031D   25222.38961399  .00001413  00000+0  21399-3 0  9993,2 33063  48.4407  97.4863 0006969 230.0463 129.9840 14.79711345921826,14.79711345,0.0006969,LEO
25983,ORBCOMM FM33,1999,99.99,-1.0,-,45.03,Inactive,0,LEO,Eastern Range Airspace,ORBCOMM,Unknown,Unknown,Unknown,1 25983U 99065D   25222.62158586  .00000773  00000+0  28762-3 0  9994,2 25983  45.0285 100.1403 0009087 340.6295  19.4208 14.40089108343914,14.40089108,0.0009087,LEO
25984,ORBCOMM FM36,1999,100.12,45.0,-,45.04,Inactive,1,LEO,Eastern Range Airspace,ORBCOMM,Commercial,Communications,Pegasus,1 25984U 99065E   25222.24074224  .00001157  00000+0  42384-3 0  9992,2 25984  45.0379 194.7152 0003947 252.8893 107.1524 14.38223468342793,14.38223468,0.0003947,LEO
25986,ORBCOMM FM34,1999,100.19,-1.0,-,45.04,Inactive,0,LEO,Eastern Range Airspace,ORBCOMM,Unknown,Unknown,Unknown,1 25986U 99065G   25222.36365390  .00000827  00000+0  32251-3 0  9999,2 25986  45.0376 200.0564 0005837 271.6966  88.3214 14.37197718342692,14.37197718,0.0005837,LEO
25985,ORBCOMM FM35,1999,100.2,45.0,-,45.04,Inactive,1,LEO,Eastern Range Airspace,ORBCOMM,Commercial,Communications,Pegasus,1 25985U 99065F   25222.25933268  .00000929  00000+0  35663-3 0  9994,2 25985  45.0382 200.0914 0006054 303.5108  56.5161 14.37185054342566,14.37185054,0.0006054,LEO
